[{"OBJECT_NAME":"STARLINK-31369","OBJECT_ID":"2024-031L","EPOCH":"2026-03-09T21:23:50.417664","MEAN_MOTION":15.30206483,"ECCENTRICITY":0.00014075,"INCLINATION":53.1611,"RA_OF_ASC_NODE":295.7854,"ARG_OF_PERICENTER":83.3177,"MEAN_ANOMALY":276.7984,"EPHEMERIS_TYPE":0,"CLASSIFICATION_TYPE":"U","NORAD_CAT_ID":58975,"ELEMENT_SET_NO":999,"REV_AT_EPOCH":11654,"BSTAR":9.8985777e-5,"MEAN_MOTION_DOT":2.574e-5,"MEAN_MOTION_DDOT":0},{"OBJECT_NAME":"COSMOS 1975","OBJECT_ID":"1988-093A","EPOCH":"2026-03-09T14:15:08.474112","MEAN_MOTION":15.28069249,"ECCENTRICITY":0.0012117,"INCLINATION":82.5181,"RA_OF_ASC_NODE":117.7814,"ARG_OF_PERICENTER":163.8427,"MEAN_ANOMALY":196.3201,"EPHEMERIS_TYPE":0,"CLASSIFICATION_TYPE":"U","NORAD_CAT_ID":19573,"ELEMENT_SET_NO":999,"REV_AT_EPOCH":1939,"BSTAR":0.0002787,"MEAN_MOTION_DOT":7.676e-5,"MEAN_MOTION_DDOT":0}]
